H1 CPF  1  DGF 2022 02 07 09  5381 larets     NONE      
H2   304206 5557    27944 2022 02 06 00 00 00 2022 02 13 00 00 00    30 1 1  0 0 0
H5  0.0650
H9
10 0 59622  21600.000000  0      -1408921.818        427746.525       6904461.295
10 0 59622  21630.000000  0      -1516008.473        624873.252       6866891.630
10 0 59622  21660.000000  0      -1620702.475        821832.405       6822337.973
10 0 59622  21690.000000  0      -1722899.363       1018414.455       6770845.790
10 0 59622  21720.000000  0      -1822498.104       1214409.803       6712467.540
10 0 59622  21750.000000  0      -1919401.189       1409609.005       6647262.619
10 0 59622  21780.000000  0      -2013514.733       1603802.990       6575297.305
10 0 59622  21810.000000  0      -2104748.558       1796783.284       6496644.696
10 0 59622  21840.000000  0      -2193016.287       1988342.230       6411384.638
10 0 59622  21870.000000  0      -2278235.420       2178273.213       6319603.649
10 0 59622  21900.000000  0      -2360327.415       2366370.886       6221394.840
10 0 59622  21930.000000  0      -2439217.755       2552431.385       6116857.816
10 0 59622  21960.000000  0      -2514836.020       2736252.554       6006098.589
10 0 59622  21990.000000  0      -2587115.949       2917634.161       5889229.471
10 0 59622  22020.000000  0      -2655995.496       3096378.115       5766368.972
10 0 59622  22050.000000  0      -2721416.892       3272288.691       5637641.686
10 0 59622  22080.000000  0      -2783326.689       3445172.740       5503178.166
10 0 59622  22110.000000  0      -2841675.803       3614839.910       5363114.801
10 0 59622  22140.000000  0      -2896419.557       3781102.851       5217593.679
10 0 59622  22170.000000  0      -2947517.708       3943777.430       5066762.452
10 0 59622  22200.000000  0      -2994934.480       4102682.934       4910774.188
10 0 59622  22230.000000  0      -3038638.588       4257642.278       4749787.224
10 0 59622  22260.000000  0      -3078603.251       4408482.207       4583965.009
10 0 59622  22290.000000  0      -3114806.208       4555033.491       4413475.940
10 0 59622  22320.000000  0      -3147229.725       4697131.123       4238493.198
10 0 59622  22350.000000  0      -3175860.598       4834614.508       4059194.572
10 0 59622  22380.000000  0      -3200690.147       4967327.652       3875762.279
10 0 59622  22410.000000  0      -3221714.206       5095119.339       3688382.786
10 0 59622  22440.000000  0      -3238933.112       5217843.312       3497246.615
10 0 59622  22470.000000  0      -3252351.682       5335358.445       3302548.156
10 0 59622  22500.000000  0      -3261979.187       5447528.906       3104485.467
10 0 59622  22530.000000  0      -3267829.326       5554224.321       2903260.075
10 0 59622  22560.000000  0      -3269920.189       5655319.930       2699076.767
10 0 59622  22590.000000  0      -3268274.215       5750696.736       2492143.386
10 0 59622  22620.000000  0      -3262918.148       5840241.649       2282670.611
10 0 59622  22650.000000  0      -3253882.984       5923847.619       2070871.751
10 0 59622  22680.000000  0      -3241203.916       6001413.776       1856962.521
10 0 59622  22710.000000  0      -3224920.270       6072845.551       1641160.821
10 0 59622  22740.000000  0      -3205075.441       6138054.796       1423686.514
10 0 59622  22770.000000  0      -3181716.823       6196959.898       1204761.193
10 0 59622  22800.000000  0      -3154895.729       6249485.878        984607.959
10 0 59622  22830.000000  0      -3124667.313       6295564.493        763451.178
10 0 59622  22860.000000  0      -3091090.487       6335134.322        541516.257
10 0 59622  22890.000000  0      -3054227.825       6368140.846        319029.404
10 0 59622  22920.000000  0      -3014145.476       6394536.524         96217.394
10 0 59622  22950.000000  0      -2970913.067       6414280.857       -126692.667
10 0 59622  22980.000000  0      -2924603.597       6427340.446       -349473.585
10 0 59622  23010.000000  0      -2875293.336       6433689.041       -571898.310
10 0 59622  23040.000000  0      -2823061.709       6433307.582       -793740.181
10 0 59622  23070.000000  0      -2767991.188       6426184.230      -1014773.162
10 0 59622  23100.000000  0      -2710167.168       6412314.389      -1234772.083
10 0 59622  23130.000000  0      -2649677.848       6391700.717      -1453512.878
10 0 59622  23160.000000  0      -2586614.102       6364353.120      -1670772.815
10 0 59622  23190.000000  0      -2521069.354       6330288.758      -1886330.720
10 0 59622  23220.000000  0      -2453139.447       6289532.024      -2099967.207
10 0 59622  23250.000000  0      -2382922.514       6242114.532      -2311464.900
10 0 59622  23280.000000  0      -2310518.843       6188075.089      -2520608.660
10 0 59622  23310.000000  0      -2236030.740       6127459.657      -2727185.797
10 0 59622  23340.000000  0      -2159562.393       6060321.312      -2930986.296
10 0 59622  23370.000000  0      -2081219.737       5986720.196      -3131803.023
10 0 59622  23400.000000  0      -2001110.307       5906723.457      -3329431.944
10 0 59622  23430.000000  0      -1919343.102       5820405.175      -3523672.331
10 0 59622  23460.000000  0      -1836028.439       5727846.293      -3714326.965
10 0 59622  23490.000000  0      -1751277.814       5629134.529      -3901202.333
10 0 59622  23520.000000  0      -1665203.751       5524364.284      -4084108.821
10 0 59622  23550.000000  0      -1577919.664       5413636.549      -4262860.905
10 0 59622  23580.000000  0      -1489539.712       5297058.799      -4437277.333
10 0 59622  23610.000000  0      -1400178.652       5174744.884      -4607181.300
10 0 59622  23640.000000  0      -1309951.699       5046814.912      -4772400.632
10 0 59622  23670.000000  0      -1218974.377       4913395.128      -4932767.952
10 0 59622  23700.000000  0      -1127362.381       4774617.781      -5088120.845
10 0 59622  23730.000000  0      -1035231.430       4630620.989      -5238302.020
10 0 59622  23760.000000  0       -942697.125       4481548.596      -5383159.465
10 0 59622  23790.000000  0       -849874.810       4327550.020      -5522546.593
10 0 59622  23820.000000  0       -756879.426       4168780.103      -5656322.392
10 0 59622  23850.000000  0       -663825.378       4005398.943      -5784351.553
10 0 59622  23880.000000  0       -570826.393       3837571.735      -5906504.608
10 0 59622  23910.000000  0       -477995.386       3665468.592      -6022658.050
10 0 59622  23940.000000  0       -385444.326       3489264.371      -6132694.452
10 0 59622  23970.000000  0       -293284.103       3309138.492      -6236502.578
10 0 59622  24000.000000  0       -201624.403       3125274.751      -6333977.487
10 0 59622  24030.000000  0       -110573.575       2937861.134      -6425020.628
10 0 59622  24060.000000  0        -20238.514       2747089.623      -6509539.937
10 0 59622  24090.000000  0         69275.468       2553156.002      -6587449.921
10 0 59622  24120.000000  0        157864.756       2356259.660      -6658671.744
10 0 59622  24150.000000  0        245427.552       2156603.380      -6723133.300
10 0 59622  24180.000000  0        331863.990       1954393.139      -6780769.290
10 0 59622  24210.000000  0        417076.246       1749837.886      -6831521.272
10 0 59622  24240.000000  0        500968.646       1543149.333      -6875337.727
10 0 59622  24270.000000  0        583447.776       1334541.737      -6912174.096
10 0 59622  24300.000000  0        664422.578       1124231.685      -6941992.828
10 0 59622  24330.000000  0        743804.451        912437.869      -6964763.419
10 0 59622  24360.000000  0        821507.348        699380.862      -6980462.441
10 0 59622  24390.000000  0        897447.869        485282.891      -6989073.567
10 0 59622  24420.000000  0        971545.344        270367.605      -6990587.588
10 0 59622  24450.000000  0       1043721.924         54859.845      -6985002.416
10 0 59622  24480.000000  0       1113902.657       -161014.587      -6972323.095
10 0 59622  24510.000000  0       1182015.567       -377029.159      -6952561.787
10 0 59622  24540.000000  0       1247991.727       -592956.842      -6925737.771
10 0 59622  24570.000000  0       1311765.327       -808570.345      -6891877.427
10 0 59622  24600.000000  0       1373273.740      -1023642.352      -6851014.208
10 0 59622  24630.000000  0       1432457.586      -1237945.754      -6803188.619
10 0 59622  24660.000000  0       1489260.787      -1451253.889      -6748448.180
10 0 59622  24690.000000  0       1543630.624      -1663340.774      -6686847.387
10 0 59622  24720.000000  0       1595517.787      -1873981.347      -6618447.664
10 0 59622  24750.000000  0       1644876.422      -2082951.698      -6543317.307
10 0 59622  24780.000000  0       1691664.170      -2290029.314      -6461531.430
10 0 59622  24810.000000  0       1735842.206      -2494993.305      -6373171.895
10 0 59622  24840.000000  0       1777375.268      -2697624.651      -6278327.244
10 0 59622  24870.000000  0       1816231.694      -2897706.435      -6177092.620
10 0 59622  24900.000000  0       1852383.438      -3095024.082      -6069569.681
10 0 59622  24930.000000  0       1885806.096      -3289365.596      -5955866.502
10 0 59622  24960.000000  0       1916478.920      -3480521.790      -5836097.473
10 0 59622  24990.000000  0       1944384.825      -3668286.513      -5710383.192
10 0 59622  25020.000000  0       1969510.402      -3852456.879      -5578850.345
10 0 59622  25050.000000  0       1991845.913      -4032833.486      -5441631.591
10 0 59622  25080.000000  0       2011385.292      -4209220.637      -5298865.430
10 0 59622  25110.000000  0       2028126.138      -4381426.556      -5150696.079
10 0 59622  25140.000000  0       2042069.701      -4549263.608      -4997273.331
10 0 59622  25170.000000  0       2053220.868      -4712548.500      -4838752.408
99
